NORAD_CAT_ID,OBJECT_NAME,OBJECT_TYPE,EPOCH,MEAN_MOTION,ECCENTRICITY,INCLINATION,RA_OF_ASC_NODE,ARG_OF_PERICENTER,MEAN_ANOMALY,BSTAR,MEAN_MOTION_DOT,MEAN_MOTION_DDOT,TLE_LINE0,TLE_LINE1,TLE_LINE2,SEMIMAJOR_AXIS,PERIOD,APOGEE,PERIGEE,DECAYED
54068.0,STARLINK-5222,PAYLOAD,2024-02-16 04:23:16,15.08839981,0.0001388,53.2161,122.069,87.6071,272.508,7.6118e-05,9.24e-06,0.0,0 STARLINK-5222,1 54068U 22136T   24047.18283083  .00000924  00000-0  76118-4 0  9999,2 54068  53.2161 122.0690 0001388  87.6071 272.5080 15.08839981 73727,6917.88,95.438,540.706,538.785,0.0
54068.0,STARLINK-5222,PAYLOAD,2024-02-16 12:20:11,15.08870027,0.000135,53.2164,120.5831,78.3592,281.7552,-0.0002925,-4.944e-05,0.0,0 STARLINK-5222,1 54068U 22136T   24047.51401936 -.00004944  00000-0 -29250-3 0  9997,2 54068  53.2164 120.5831 0001350  78.3592 281.7552 15.08870027 73771,6917.789,95.436,540.588,538.72,0.0
54068.0,STARLINK-5222,PAYLOAD,2024-02-17 12:10:57,15.08863279,0.0001437,53.217,116.1225,93.7805,266.3351,0.0002862,4.273e-05,0.0,0 STARLINK-5222,1 54068U 22136T   24048.50761176  .00004273  00000-0  28620-3 0  9995,2 54068  53.2170 116.1225 0001437  93.7805 266.3351 15.08863279 73924,6917.809,95.436,540.668,538.68,0.0
54068.0,STARLINK-5222,PAYLOAD,2024-02-17 13:46:20,15.08867008,0.000142,53.2166,115.8246,92.9769,267.1386,0.00031184,4.682e-05,0.0,0 STARLINK-5222,1 54068U 22136T   24048.57384787  .00004682  00000-0  31184-3 0  9994,2 54068  53.2166 115.8246 0001420  92.9769 267.1386 15.08867008 73459,6917.798,95.436,540.645,538.681,0.0
54068.0,STARLINK-5222,PAYLOAD,2024-02-17 21:43:18,15.08838773,0.0001804,53.217,114.3385,78.9051,281.2143,2.9507e-05,1.82e-06,0.0,0 STARLINK-5222,1 54068U 22136T   24048.90507236  .00000182  00000-0  29507-4 0  9995,2 54068  53.2170 114.3385 0001804  78.9051 281.2143 15.08838773 73507,6917.884,95.438,540.997,538.501,0.0
54068.0,STARLINK-5222,PAYLOAD,2024-02-18 04:04:51,15.08837671,0.0002222,53.217,113.1487,80.2578,279.8665,2.4397e-05,1e-06,0.0,0 STARLINK-5222,1 54068U 22136T   24049.17003603  .00000100  00000-0  24397-4 0  9996,2 54068  53.2170 113.1487 0002222  80.2578 279.8665 15.08837671 74028,6917.888,95.438,541.29,538.215,0.0
54068.0,STARLINK-5222,PAYLOAD,2024-02-18 10:26:23,15.0883574,0.0001686,53.2166,111.9586,85.9808,274.1376,1.0076e-05,-1.28e-06,0.0,0 STARLINK-5222,1 54068U 22136T   24049.43499559 -.00000128  00000-0  10076-4 0  9994,2 54068  53.2166 111.9586 0001686  85.9808 274.1376 15.08835740 73582,6917.893,95.438,540.925,538.592,0.0
54068.0,STARLINK-5222,PAYLOAD,2024-02-18 21:34:05,15.08839222,0.0001671,53.2166,109.8761,82.1211,277.9971,-3.8925e-05,-9.07e-06,0.0,0 STARLINK-5222,1 54068U 22136T   24049.89867359 -.00000907  00000-0 -38925-4 0  9990,2 54068  53.2166 109.8761 0001671  82.1211 277.9971 15.08839222 73653,6917.883,95.438,540.904,538.592,0.0
54068.0,STARLINK-5222,PAYLOAD,2024-02-19 10:17:10,15.0884808,0.0001637,53.2162,107.4965,96.388,263.7298,-0.00010067,-1.89e-05,0.0,0 STARLINK-5222,1 54068U 22136T   24050.42859029 -.00001890  00000-0 -10067-3 0  9994,2 54068  53.2162 107.4965 0001637  96.3880 263.7298 15.08848080 74210,6917.856,95.437,540.853,538.588,0.0
54068.0,STARLINK-5222,PAYLOAD,2024-02-20 03:46:25,15.08812193,0.000167,53.2166,104.2257,92.486,267.6323,0.00036728,5.558e-05,0.0,0 STARLINK-5222,1 54068U 22136T   24051.15724281  .00005558  00000-0  36728-3 0  9991,2 54068  53.2166 104.2257 0001670  92.4860 267.6323 15.08812193 74325,6917.965,95.439,540.986,538.675,0.0
54068.0,STARLINK-5222,PAYLOAD,2024-02-20 10:07:58,15.08817779,0.0001637,53.2167,103.0362,93.4369,266.681,0.0004186,6.376e-05,0.0,0 STARLINK-5222,1 54068U 22136T   24051.42220299  .00006376  00000-0  41860-3 0  9993,2 54068  53.2167 103.0362 0001637  93.4369 266.6810 15.08817779 73883,6917.948,95.439,540.946,538.681,0.0
54068.0,STARLINK-5222,PAYLOAD,2024-02-21 03:37:12,15.08834796,0.0001585,53.2163,99.7656,92.8786,267.2388,9.7436e-05,1.263e-05,0.0,0 STARLINK-5222,1 54068U 22136T   24052.15083894  .00001263  00000-0  97436-4 0  9993,2 54068  53.2163  99.7656 0001585  92.8786 267.2388 15.08834796 74475,6917.896,95.438,540.858,538.665,0.0
54068.0,STARLINK-5222,PAYLOAD,2024-02-21 09:58:44,15.08842049,0.0001588,53.2162,98.5759,93.3674,266.75,0.00015434,2.169e-05,0.0,0 STARLINK-5222,1 54068U 22136T   24052.41579379  .00002169  00000-0  15434-3 0  9993,2 54068  53.2162  98.5759 0001588  93.3674 266.7500 15.08842049 74515,6917.874,95.437,540.838,538.641,0.0
54068.0,STARLINK-5222,PAYLOAD,2024-02-21 19:31:03,15.08836062,0.0001534,53.2157,96.793,91.7716,268.3451,2.2201e-05,6.5e-07,0.0,0 STARLINK-5222,1 54068U 22136T   24052.81324052  .00000065  00000-0  22201-4 0  9997,2 54068  53.2157  96.7930 0001534  91.7716 268.3451 15.08836062 74577,6917.892,95.438,540.819,538.696,0.0
54068.0,STARLINK-5222,PAYLOAD,2024-02-22 09:49:32,15.0883176,0.0001632,53.2173,94.1178,99.6645,260.4531,-7.0919e-06,-4.01e-06,0.0,0 STARLINK-5222,1 54068U 22136T   24053.40940668 -.00000401  00000-0 -70919-5 0  9996,2 54068  53.2173  94.1178 0001632  99.6645 260.4531 15.08831760 74187,6917.906,95.438,540.9,538.642,0.0
54068.0,STARLINK-5222,PAYLOAD,2024-02-23 11:15:41,15.08847288,0.0001587,53.2176,89.3595,102.4965,257.6205,8.8945e-05,1.128e-05,0.0,0 STARLINK-5222,1 54068U 22136T   24054.46923597  .00001128  00000-0  88945-4 0  9997,2 54068  53.2176  89.3595 0001587 102.4965 257.6205 15.08847288 74825,6917.858,95.437,540.821,538.625,0.0
54068.0,STARLINK-5222,PAYLOAD,2024-02-24 01:34:10,15.08837049,0.000159,53.2171,86.6831,89.8155,270.302,0.00012953,1.774e-05,0.0,0 STARLINK-5222,1 54068U 22136T   24055.06540284  .00001774  00000-0  12953-3 0  9994,2 54068  53.2171  86.6831 0001590  89.8155 270.3020 15.08837049 74917,6917.889,95.438,540.854,538.654,0.0
54068.0,STARLINK-5222,PAYLOAD,2024-02-24 11:06:29,15.08841736,0.000139,53.2165,84.8966,97.1683,262.9467,0.00011687,1.573e-05,0.0,0 STARLINK-5222,1 54068U 22136T   24055.46284152  .00001573  00000-0  11687-3 0  9997,2 54068  53.2165  84.8966 0001390  97.1683 262.9467 15.08841736 74498,6917.875,95.437,540.702,538.778,0.0
54068.0,STARLINK-5222,PAYLOAD,2024-02-24 19:03:25,15.08840933,0.0001412,53.2165,83.4097,92.1522,267.9632,8.3921e-05,1.048e-05,0.0,0 STARLINK-5222,1 54068U 22136T   24055.79404330  .00001048  00000-0  83921-4 0  9993,2 54068  53.2165  83.4097 0001412  92.1522 267.9632 15.08840933 74543,6917.878,95.437,540.719,538.766,0.0
54068.0,STARLINK-5222,PAYLOAD,2024-02-25 09:21:52,15.08849891,0.0001451,53.2163,80.7339,91.6452,268.4706,9.3267e-05,1.197e-05,0.0,0 STARLINK-5222,1 54068U 22136T   24056.39019608  .00001197  00000-0  93267-4 0  9999,2 54068  53.2163  80.7339 0001451  91.6452 268.4706 15.08849891 75113,6917.85,95.437,540.719,538.711,0.0
54068.0,STARLINK-5222,PAYLOAD,2024-02-25 18:54:12,15.08845887,0.0001369,53.2154,78.9491,90.5349,269.58,-2.5406e-06,-3.28e-06,0.0,0 STARLINK-5222,1 54068U 22136T   24056.78763912 -.00000328  00000-0 -25406-5 0  9994,2 54068  53.2154  78.9491 0001369  90.5349 269.5800 15.08845887 75176,6917.862,95.437,540.674,538.78,0.0
54068.0,STARLINK-5222,PAYLOAD,2024-02-26 10:48:03,15.08847007,0.0001263,53.2156,75.9742,93.9885,266.1251,5.5737e-05,5.99e-06,0.0,0 STARLINK-5222,1 54068U 22136T   24057.45003641  .00000599  00000-0  55737-4 0  9992,2 54068  53.2156  75.9742 0001263  93.9885 266.1251 15.08847007 74795,6917.859,95.437,540.598,538.85,0.0
54068.0,STARLINK-5222,PAYLOAD,2024-02-27 04:17:18,15.08835567,0.0001373,53.2167,72.7025,94.2673,265.8476,8.6073e-05,1.082e-05,0.0,0 STARLINK-5222,1 54068U 22136T   24058.17868344  .00001082  00000-0  86073-4 0  9996,2 54068  53.2167  72.7025 0001373  94.2673 265.8476 15.08835567 75386,6917.894,95.438,540.709,538.809,0.0
54068.0,STARLINK-5222,PAYLOAD,2024-02-27 10:38:50,15.0884551,0.0001518,53.216,71.5131,96.0465,264.07,-6.1224e-07,-2.98e-06,0.0,0 STARLINK-5222,1 54068U 22136T   24058.44363915 -.00000298  00000-0 -61224-6 0  9993,2 54068  53.2160  71.5131 0001518  96.0465 264.0700 15.08845510 75429,6917.864,95.437,540.779,538.678,0.0
54068.0,STARLINK-5222,PAYLOAD,2024-02-28 04:08:05,15.08835839,0.0001578,53.2165,68.2405,97.516,262.6011,2.4664e-05,1.05e-06,0.0,0 STARLINK-5222,1 54068U 22136T   24059.17228514  .00000105  00000-0  24664-4 0  9999,2 54068  53.2165  68.2405 0001578  97.5160 262.6011 15.08835839 75539,6917.893,95.438,540.85,538.666,0.0
54068.0,STARLINK-5222,PAYLOAD,2024-02-28 10:29:37,15.08839934,0.0001478,53.2158,67.0528,105.683,254.4325,2.6921e-05,1.41e-06,0.0,0 STARLINK-5222,1 54068U 22136T   24059.43724265  .00000141  00000-0  26921-4 0  9990,2 54068  53.2158  67.0528 0001478 105.6830 254.4325 15.08839934 75096,6917.881,95.438,540.768,538.723,0.0
54068.0,STARLINK-5222,PAYLOAD,2024-02-29 05:34:15,15.08840656,0.0001462,53.2166,63.4828,95.2052,264.9107,5.2318e-05,5.45e-06,0.0,0 STARLINK-5222,1 54068U 22136T   24060.23212368  .00000545  00000-0  52318-4 0  9993,2 54068  53.2166  63.4828 0001462  95.2052 264.9107 15.08840656 75694,6917.878,95.438,540.755,538.732,0.0
54068.0,STARLINK-5222,PAYLOAD,2024-02-29 07:09:38,15.08843262,0.0001414,53.2164,63.1864,90.2862,269.8292,7.0864e-05,8.4e-06,0.0,0 STARLINK-5222,1 54068U 22136T   24060.29836164  .00000840  00000-0  70864-4 0  9999,2 54068  53.2164  63.1864 0001414  90.2862 269.8292 15.08843262 75224,6917.87,95.437,540.714,538.757,0.0
54068.0,STARLINK-5222,PAYLOAD,2024-02-29 16:41:57,15.08839929,0.0001389,53.2163,61.4032,90.5736,269.5415,2.0662e-05,4.1e-07,0.0,0 STARLINK-5222,1 54068U 22136T   24060.69580512  .00000041  00000-0  20662-4 0  9990,2 54068  53.2163  61.4032 0001389  90.5736 269.5415 15.08839929 75280,6917.881,95.438,540.706,538.785,0.0
54068.0,STARLINK-5222,PAYLOAD,2024-03-01 03:49:40,15.0883082,0.0001583,53.2183,59.3257,103.3024,256.8144,3.6208e-06,-2.3e-06,0.0,0 STARLINK-5222,1 54068U 22136T   24061.15949401 -.00000230  00000-0  36208-5 0  9993,2 54068  53.2183  59.3257 0001583 103.3024 256.8144 15.08830820 75836,6917.908,95.438,540.869,538.678,0.0
